NORAD_CAT_ID,OBJECT_NAME,OBJECT_TYPE,EPOCH,MEAN_MOTION,ECCENTRICITY,INCLINATION,RA_OF_ASC_NODE,ARG_OF_PERICENTER,MEAN_ANOMALY,BSTAR,MEAN_MOTION_DOT,MEAN_MOTION_DDOT,TLE_LINE0,TLE_LINE1,TLE_LINE2,SEMIMAJOR_AXIS,PERIOD,APOGEE,PERIGEE,DECAYED
54083.0,STARLINK-5178,PAYLOAD,2024-08-04 13:48:28,15.08839225,0.0001422,53.2169,67.4036,80.5462,279.5691,0.00027002,4.012e-05,0.0,0 STARLINK-5178,1 54083U 22136AJ  24217.57533107  .00004012  00000-0  27002-3 0  9992,2 54083  53.2169  67.4036 0001422  80.5462 279.5691 15.08839225 99109,6917.883,95.438,540.731,538.764,0.0
54083.0,STARLINK-5178,PAYLOAD,2024-08-04 21:45:23,15.08872069,0.0001353,53.2159,65.9177,76.7101,283.4042,0.0013403,0.00021126,0.0,0 STARLINK-5178,1 54083U 22136AJ  24217.90652289  .00021126  00000-0  13403-2 0  9996,2 54083  53.2159  65.9177 0001353  76.7101 283.4042 15.08872069 99159,6917.782,95.436,540.583,538.711,0.0
54083.0,STARLINK-5178,PAYLOAD,2024-08-05 20:00:48,15.08822402,0.0001456,53.2168,61.7516,95.3706,264.7452,0.0010673,0.00016731,0.0,0 STARLINK-5178,1 54083U 22136AJ  24218.83389014  .00016731  00000-0  10673-2 0  9994,2 54083  53.2168  61.7516 0001456  95.3706 264.7452 15.08822402 99773,6917.934,95.439,540.806,538.792,0.0
54083.0,STARLINK-5178,PAYLOAD,2024-08-06 19:51:35,15.08850557,0.000136,53.2164,57.2914,92.357,267.7578,0.0011871,0.00018661,0.0,0 STARLINK-5178,1 54083U 22136AJ  24219.82749427  .00018661  00000-0  11871-2 0  9997,2 54083  53.2164  57.2914 0001360  92.3570 267.7578 15.08850557 99449,6917.848,95.437,540.654,538.772,0.0
54083.0,STARLINK-5178,PAYLOAD,2024-08-07 13:20:49,15.08854542,0.0001537,53.2178,54.0193,96.3239,263.7928,0.00073684,0.00011463,0.0,0 STARLINK-5178,1 54083U 22136AJ  24220.55613114  .00011463  00000-0  73684-3 0  9996,2 54083  53.2178  54.0193 0001537  96.3239 263.7928 15.08854542100031,6917.836,95.437,540.764,538.638,0.0
54083.0,STARLINK-5178,PAYLOAD,2024-08-07 19:42:22,15.0885082,0.00014,53.2173,52.8276,80.6194,279.4956,0.0003796,5.76e-05,0.0,0 STARLINK-5178,1 54083U 22136AJ  24220.82109052  .00005760  00000-0  37960-3 0  9997,2 54083  53.2173  52.8276 0001400  80.6194 279.4956 15.08850820 99597,6917.847,95.437,540.681,538.744,0.0
54083.0,STARLINK-5178,PAYLOAD,2024-08-08 11:36:13,15.08855069,0.000139,53.2175,49.8549,76.4156,283.6991,0.00031154,4.676e-05,0.0,0 STARLINK-5178,1 54083U 22136AJ  24221.48348537  .00004676  00000-0  31154-3 0  9997,2 54083  53.2175  49.8549 0001390  76.4156 283.6991 15.08855069 99694,6917.834,95.437,540.661,538.738,0.0
54083.0,STARLINK-5178,PAYLOAD,2024-08-08 19:33:09,15.08842775,0.0001367,53.2174,48.3681,79.264,280.8506,2.4398e-05,1e-06,0.0,0 STARLINK-5178,1 54083U 22136AJ  24221.81469006  .00000100  00000-0  24398-4 0  9990,2 54083  53.2174  48.3681 0001367  79.2640 280.8506 15.08842775100220,6917.872,95.437,540.683,538.791,0.0
54083.0,STARLINK-5178,PAYLOAD,2024-08-08 22:43:55,15.0884294,0.0001365,53.2175,47.7737,81.2393,278.8754,2.7507e-05,1.5e-06,0.0,0 STARLINK-5178,1 54083U 22136AJ  24221.94717033  .00000150  00000-0  27507-4 0  9990,2 54083  53.2175  47.7737 0001365  81.2393 278.8754 15.08842940 99764,6917.871,95.437,540.681,538.792,0.0
54083.0,STARLINK-5178,PAYLOAD,2024-08-09 05:05:27,15.08856521,0.0001198,53.2173,46.5899,106.2726,253.8398,0.00018921,2.726e-05,0.0,0 STARLINK-5178,1 54083U 22136AJ  24222.21212039  .00002726  00000-0  18921-3 0  9997,2 54083  53.2173  46.5899 0001198 106.2726 253.8398 15.08856521100287,6917.83,95.437,540.524,538.866,0.0
54083.0,STARLINK-5178,PAYLOAD,2024-08-09 20:59:19,15.08840782,0.0001098,53.2174,43.6112,84.1479,275.9638,5.3987e-05,5.72e-06,0.0,0 STARLINK-5178,1 54083U 22136AJ  24222.87453193  .00000572  00000-0  53987-4 0  9996,2 54083  53.2174  43.6112 0001098  84.1479 275.9638 15.08840782100387,6917.878,95.438,540.503,538.983,0.0
54083.0,STARLINK-5178,PAYLOAD,2024-08-10 20:50:06,15.08845597,0.0001124,53.2177,39.1517,93.2236,266.8885,0.00021339,3.11e-05,0.0,0 STARLINK-5178,1 54083U 22136AJ  24223.86813158  .00003110  00000-0  21339-3 0  9993,2 54083  53.2177  39.1517 0001124  93.2236 266.8885 15.08845597100057,6917.863,95.437,540.506,538.951,0.0
54083.0,STARLINK-5178,PAYLOAD,2024-08-11 11:08:35,15.08821987,0.0001924,53.2175,36.4763,84.3733,275.7479,-0.00032491,-5.453e-05,0.0,0 STARLINK-5178,1 54083U 22136AJ  24224.46430240 -.00005453  00000-0 -32491-3 0  9992,2 54083  53.2175  36.4763 0001924  84.3733 275.7479 15.08821987100627,6917.935,95.439,541.131,538.469,0.0
54083.0,STARLINK-5178,PAYLOAD,2024-08-11 20:40:54,15.08835985,0.0002292,53.2184,34.6933,83.268,276.8573,6.3334e-05,7.2e-06,0.0,0 STARLINK-5178,1 54083U 22136AJ  24224.86174136  .00000720  00000-0  63334-4 0  9996,2 54083  53.2184  34.6933 0002292  83.2680 276.8573 15.08835985100680,6917.893,95.438,541.343,538.172,0.0
54083.0,STARLINK-5178,PAYLOAD,2024-08-12 04:37:49,15.08854174,0.0002102,53.2196,33.2089,86.7882,273.3351,0.00036338,5.502e-05,0.0,0 STARLINK-5178,1 54083U 22136AJ  24225.19293122  .00005502  00000-0  36338-3 0  9996,2 54083  53.2196  33.2089 0002102  86.7882 273.3351 15.08854174100735,6917.837,95.437,541.156,538.248,0.0
54083.0,STARLINK-5178,PAYLOAD,2024-08-12 20:31:40,15.08853888,0.0001616,53.2163,30.2293,100.1549,259.9625,0.0004321,6.598e-05,0.0,0 STARLINK-5178,1 54083U 22136AJ  24225.85533095  .00006598  00000-0  43210-3 0  9998,2 54083  53.2163  30.2293 0001616 100.1549 259.9625 15.08853888100839,6917.838,95.437,540.821,538.585,0.0
54083.0,STARLINK-5178,PAYLOAD,2024-08-13 04:28:35,15.08866739,0.000236,53.2172,28.7443,78.3991,281.7266,0.00075336,0.00011731,0.0,0 STARLINK-5178,1 54083U 22136AJ  24226.18652437  .00011731  00000-0  75336-3 0  9996,2 54083  53.2172  28.7443 0002360  78.3991 281.7266 15.08866739100880,6917.799,95.436,541.296,538.031,0.0
54083.0,STARLINK-5178,PAYLOAD,2024-08-13 18:47:05,15.08804414,0.000112,53.2186,26.0674,87.1606,272.9514,-0.00062519,-0.00010214,0.0,0 STARLINK-5178,1 54083U 22136AJ  24226.78270285 -.00010214  00000-0 -62519-3 0  9995,2 54083  53.2186  26.0674 0001120  87.1606 272.9514 15.08804414100976,6917.989,95.44,540.629,539.079,0.0
54083.0,STARLINK-5178,PAYLOAD,2024-08-14 04:19:25,15.08814809,0.0001886,53.2165,24.2846,87.37,272.7508,-3.8288e-05,-8.97e-06,0.0,0 STARLINK-5178,1 54083U 22136AJ  24227.18015192 -.00000897  00000-0 -38288-4 0  9997,2 54083  53.2165  24.2846 0001886  87.3700 272.7508 15.08814809101038,6917.957,95.439,541.127,538.518,0.0
54083.0,STARLINK-5178,PAYLOAD,2024-08-14 13:51:44,15.08828388,0.000105,53.2173,22.5035,63.5624,296.5476,0.00066451,0.000103,0.0,0 STARLINK-5178,1 54083U 22136AJ  24227.57759426  .00010300  00000-0  66451-3 0  9995,2 54083  53.2173  22.5035 0001050  63.5624 296.5476 15.08828388100610,6917.916,95.438,540.507,539.055,0.0
54083.0,STARLINK-5178,PAYLOAD,2024-08-14 17:02:30,15.08842543,0.0001297,53.2178,21.907,67.6768,292.4362,0.0015642,0.00024696,0.0,0 STARLINK-5178,1 54083U 22136AJ  24227.71007690  .00024696  00000-0  15642-2 0  9998,2 54083  53.2178  21.9070 0001297  67.6768 292.4362 15.08842543101118,6917.873,95.437,540.635,538.84,0.0
54083.0,STARLINK-5178,PAYLOAD,2024-08-15 16:53:16,15.08870624,0.0001312,53.2182,17.4456,68.0234,292.0898,0.0011471,0.0001803,0.0,0 STARLINK-5178,1 54083U 22136AJ  24228.70366694  .00018030  00000-0  11471-2 0  9991,2 54083  53.2182  17.4456 0001312  68.0234 292.0898 15.08870624101269,6917.787,95.436,540.559,538.744,0.0
54083.0,STARLINK-5178,PAYLOAD,2024-08-16 02:25:34,15.08883647,0.0001282,53.218,15.6615,64.4704,295.6421,0.0010892,0.0001711,0.0,0 STARLINK-5178,1 54083U 22136AJ  24229.10109687  .00017110  00000-0  10892-2 0  9997,2 54083  53.2180  15.6615 0001282  64.4704 295.6421 15.08883647100845,6917.747,95.435,540.499,538.725,0.0
54083.0,STARLINK-5178,PAYLOAD,2024-08-16 19:54:50,15.08846046,0.0004024,53.2185,12.3905,90.8243,269.321,0.0007099,0.00011031,0.0,0 STARLINK-5178,1 54083U 22136AJ  24229.82975060  .00011031  00000-0  70990-3 0  9994,2 54083  53.2185  12.3905 0004024  90.8243 269.3210 15.08846046101436,6917.862,95.437,542.511,536.943,0.0
54083.0,STARLINK-5178,PAYLOAD,2024-08-18 13:14:51,15.08843946,0.0001546,53.2191,4.6622,88.8866,271.2304,0.00034226,5.164e-05,0.0,0 STARLINK-5178,1 54083U 22136AJ  24231.55198554  .00005164  00000-0  34226-3 0  9994,2 54083  53.2191   4.6622 0001546  88.8866 271.2304 15.08843946101697,6917.868,95.437,540.803,538.664,0.0
54083.0,STARLINK-5178,PAYLOAD,2024-08-18 16:25:38,15.08847838,0.0001196,53.218,4.0646,74.226,285.8864,0.0010139,0.00015888,0.0,0 STARLINK-5178,1 54083U 22136AJ  24231.68446918  .00015888  00000-0  10139-2 0  9998,2 54083  53.2180   4.0646 0001196  74.2260 285.8864 15.08847838101239,6917.856,95.437,540.549,538.894,0.0
54083.0,STARLINK-5178,PAYLOAD,2024-08-20 12:56:25,15.08847102,0.0001154,53.2181,355.7379,110.0914,250.0203,0.00028465,4.246e-05,0.0,0 STARLINK-5178,1 54083U 22136AJ  24233.53918515  .00004246  00000-0  28465-3 0  9999,2 54083  53.2181 355.7379 0001154 110.0914 250.0203 15.08847102101996,6917.859,95.437,540.522,538.925,0.0
54083.0,STARLINK-5178,PAYLOAD,2024-08-20 14:31:48,15.08848825,0.0001283,53.2175,355.4403,92.2509,267.863,0.00034027,5.133e-05,0.0,0 STARLINK-5178,1 54083U 22136AJ  24233.60542583  .00005133  00000-0  34027-3 0  9992,2 54083  53.2175 355.4403 0001283  92.2509 267.8630 15.08848825101520,6917.853,95.437,540.606,538.831,0.0
54083.0,STARLINK-5178,PAYLOAD,2024-08-21 12:47:12,15.08842862,0.0001099,53.2169,351.2776,106.2082,253.9031,0.00015773,2.224e-05,0.0,0 STARLINK-5178,1 54083U 22136AJ  24234.53278751  .00002224  00000-0  15773-3 0  9993,2 54083  53.2169 351.2776 0001099 106.2082 253.9031 15.08842862102142,6917.872,95.437,540.497,538.976,0.0
54083.0,STARLINK-5178,PAYLOAD,2024-08-21 14:22:36,15.08838823,0.0001334,53.217,350.9813,107.2581,252.8557,0.00013662,1.887e-05,0.0,0 STARLINK-5178,1 54083U 22136AJ  24234.59902908  .00001887  00000-0  13662-3 0  9996,2 54083  53.2170 350.9813 0001334 107.2581 252.8557 15.08838823101679,6917.884,95.438,540.672,538.826,0.0
